{
  "type": "FeatureCollection",
  "generator": "overpass-turbo",
  "copyright": "The data included in this document is from www.openstreetmap.org. The data is made available under ODbL.",
  "timestamp": "2025-11-29T10:55:31Z",
  "features": [
    {
      "type": "Feature",
      "properties": {
        "@id": "way/1327092585",
        "circuits": "2",
        "construction:power": "cable",
        "frequency": "0",
        "location": "underground",
        "name": "Interconnexion Electrique du Golfe de Gascogne / Interconexión Eléctrica por el Golfo de Bizkaia",
        "name:es": "interconexión eléctrica por el Golfo de Bizkaia",
        "name:fr": "Interconnexion Electrique du Golfe de Gascogne",
        "operator": "RTE;REE",
        "related_law:FR:NOR": "ENER2317744A",
        "source": "https://www.nouvelle-aquitaine.developpement-durable.gouv.fr/arrete-portant-declaration-d-utilite-publique-a14663.html",
        "voltage": "400000",
        "wikidata": "Q125698358",
        "wikipedia": "fr:Interconnexion électrique France-Espagne golfe de Gascogne"
      },
      "geometry": {
        "type": "LineString",
        "coordinates": [
          [
            -0.4362828,
            45.0713764
          ],
          [
            -0.4388094,
            45.0685349
          ],
          [
            -0.4381442,
            45.0676256
          ],
          [
            -0.4451823,
            45.0652766
          ],
          [
            -0.4473388,
            45.0654812
          ],
          [
            -0.4489803,
            45.0652463
          ],
          [
            -0.4518449,
            45.0644885
          ],
          [
            -0.4517806,
            45.063814
          ],
          [
            -0.4520059,
            45.0631775
          ],
          [
            -0.4527784,
            45.0623591
          ],
          [
            -0.4526067,
            45.0617528
          ],
          [
            -0.4547203,
            45.0609419
          ],
          [
            -0.4580033,
            45.0590625
          ],
          [
            -0.4595161,
            45.058153
          ],
          [
            -0.4598057,
            45.0567055
          ],
          [
            -0.4618657,
            45.0547046
          ],
          [
            -0.4624236,
            45.0542498
          ],
          [
            -0.4627884,
            45.0541058
          ],
          [
            -0.4631746,
            45.0540149
          ],
          [
            -0.4645801,
            45.0539164
          ],
          [
            -0.465138,
            45.0537496
          ],
          [
            -0.4663503,
            45.0531622
          ],
          [
            -0.4666615,
            45.0530637
          ],
          [
            -0.4674554,
            45.0524194
          ],
          [
            -0.4696763,
            45.0495391
          ],
          [
            -0.4700196,
            45.0492587
          ],
          [
            -0.4701993,
            45.0491715
          ],
          [
            -0.4712641,
            45.0486371
          ],
          [
            -0.471291,
            45.0485083
          ],
          [
            -0.4714572,
            45.046689
          ],
          [
            -0.4713124,
            45.0459386
          ],
          [
            -0.4701537,
            45.0448394
          ],
          [
            -0.4705185,
            45.0446385
          ],
          [
            -0.4722244,
            45.0438009
          ],
          [
            -0.4726321,
            45.0436303
          ],
          [
            -0.473823,
            45.0432513
          ],
          [
            -0.4753357,
            45.0430087
          ],
          [
            -0.4757327,
            45.0429462
          ],
          [
            -0.4761323,
            45.0427851
          ],
          [
            -0.4766983,
            45.0425027
          ],
          [
            -0.4773447,
            45.0422791
          ],
          [
            -0.4777443,
            45.0420213
          ],
          [
            -0.4777899,
            45.0416612
          ],
          [
            -0.477739,
            45.0413068
          ],
          [
            -0.4777738,
            45.0410775
          ],
          [
            -0.4778624,
            45.0408519
          ],
          [
            -0.4782701,
            45.0400976
          ],
          [
            -0.4784229,
            45.0397337
          ],
          [
            -0.4785866,
            45.0392713
          ],
          [
            -0.4787904,
            45.038896
          ],
          [
            -0.479115,
            45.0383141
          ],
          [
            -0.479579,
            45.037357
          ],
          [
            -0.4797962,
            45.0370424
          ],
          [
            -0.4804748,
            45.0357118
          ],
          [
            -0.4804963,
            45.0351924
          ],
          [
            -0.480668,
            45.0326866
          ],
          [
            -0.478152,
            45.0318715
          ],
          [
            -0.4779267,
            45.0317237
          ],
          [
            -0.4781038,
            45.0312953
          ],
          [
            -0.4783183,
            45.0310299
          ],
          [
            -0.4793161,
            45.0298395
          ],
          [
            -0.4797399,
            45.0292291
          ],
          [
            -0.4794341,
            45.0291722
          ],
          [
            -0.4795066,
            45.0290622
          ],
          [
            -0.4801691,
            45.0281694
          ],
          [
            -0.4807109,
            45.0276064
          ],
          [
            -0.4812714,
            45.0270509
          ],
          [
            -0.4821834,
            45.0260993
          ],
          [
            -0.4816979,
            45.0257789
          ],
          [
            -0.4788923,
            45.0242623
          ],
          [
            -0.4780877,
            45.0237694
          ],
          [
            -0.4768807,
            45.022956
          ],
          [
            -0.4772776,
            45.0226167
          ],
          [
            -0.4793268,
            45.0208004
          ],
          [
            -0.4795951,
            45.0206582
          ],
          [
            -0.4798821,
            45.0205919
          ],
          [
            -0.4816952,
            45.0202184
          ],
          [
            -0.4819983,
            45.0201046
          ],
          [
            -0.4824758,
            45.019824
          ],
          [
            -0.4923221,
            45.0132181
          ],
          [
            -0.4928425,
            45.0128294
          ],
          [
            -0.4931107,
            45.0125355
          ],
          [
            -0.4932126,
            45.0123137
          ],
          [
            -0.4944599,
            45.0100154
          ],
          [
            -0.5112398,
            45.0009657
          ],
          [
            -0.5136645,
            45.0013829
          ],
          [
            -0.5230522,
            45.0021036
          ],
          [
            -0.5285239,
            45.002316
          ],
          [
            -0.5398321,
            45.0093024
          ],
          [
            -0.5404866,
            45.0099775
          ],
          [
            -0.5414736,
            45.0114717
          ],
          [
            -0.5440164,
            45.0168113
          ],
          [
            -0.5454004,
            45.0185556
          ],
          [
            -0.5471921,
            45.0199586
          ],
          [
            -0.5492199,
            45.02099
          ],
          [
            -0.5514515,
            45.021718
          ],
          [
            -0.5540693,
            45.0221731
          ],
          [
            -0.5627704,
            45.0229162
          ],
          [
            -0.5650556,
            45.0228556
          ],
          [
            -0.5667079,
            45.0225826
          ],
          [
            -0.5683816,
            45.0220214
          ],
          [
            -0.5699587,
            45.0212099
          ],
          [
            -0.5721796,
            45.0196856
          ],
          [
            -0.5786812,
            45.0153703
          ],
          [
            -0.5905795,
            45.0069889
          ],
          [
            -0.5973923,
            45.0034767
          ],
          [
            -0.6005681,
            45.0011553
          ],
          [
            -0.60251,
            44.9978476
          ],
          [
            -0.6051278,
            44.9955792
          ],
          [
            -0.6066299,
            44.9949115
          ],
          [
            -0.6084538,
            44.9943197
          ],
          [
            -0.6105137,
            44.9938493
          ],
          [
            -0.6122732,
            44.9938038
          ],
          [
            -0.6144619,
            44.9941831
          ],
          [
            -0.6160283,
            44.9943045
          ],
          [
            -0.6191397,
            44.9951543
          ],
          [
            -0.6215966,
            44.9957233
          ],
          [
            -0.625695,
            44.9956626
          ],
          [
            -0.6275618,
            44.9955412
          ],
          [
            -0.6279159,
            44.9955488
          ],
          [
            -0.6283343,
            44.9956398
          ],
          [
            -0.6296647,
            44.9962771
          ],
          [
            -0.6316388,
            44.9956626
          ],
          [
            -0.6340635,
            44.9949115
          ],
          [
            -0.6352759,
            44.9943728
          ],
          [
            -0.6367242,
            44.9938872
          ],
          [
            -0.6379259,
            44.9932651
          ],
          [
            -0.6389988,
            44.9929616
          ],
          [
            -0.6410802,
            44.9923622
          ],
          [
            -0.6423032,
            44.9922408
          ],
          [
            -0.6429899,
            44.9917931
          ],
          [
            -0.6436873,
            44.9915048
          ],
          [
            -0.6451249,
            44.9905336
          ],
          [
            -0.6482685,
            44.9882117
          ],
          [
            -0.6493306,
            44.9883862
          ],
          [
            -0.6505323,
            44.9883407
          ],
          [
            -0.6523991,
            44.9879309
          ],
          [
            -0.6546843,
            44.9863602
          ],
          [
            -0.6553924,
            44.9860946
          ],
          [
            -0.6559718,
            44.985958
          ],
          [
            -0.6579888,
            44.984281
          ],
          [
            -0.6603706,
            44.9824066
          ],
          [
            -0.6634712,
            44.9799022
          ],
          [
            -0.6653273,
            44.9789232
          ],
          [
            -0.6691897,
            44.9772839
          ],
          [
            -0.6694084,
            44.9771956
          ],
          [
            -0.6728912,
            44.9757888
          ],
          [
            -0.6813133,
            44.9739824
          ],
          [
            -0.6842476,
            44.9772877
          ],
          [
            -0.6954754,
            44.9749463
          ],
          [
            -0.6964624,
            44.9754245
          ],
          [
            -0.6991553,
            44.9736712
          ],
          [
            -0.7032216,
            44.9766881
          ],
          [
            -0.7044339,
            44.9752271
          ],
          [
            -0.7100988,
            44.9718648
          ],
          [
            -0.7189903,
            44.9666919
          ],
          [
            -0.7218951,
            44.968916
          ],
          [
            -0.7284182,
            44.9660922
          ],
          [
            -0.7297325,
            44.9665363
          ],
          [
            -0.7363522,
            44.9626117
          ],
          [
            -0.7370496,
            44.9623839
          ],
          [
            -0.7630134,
            44.9610934
          ],
          [
            -0.7633245,
            44.9610136
          ],
          [
            -0.7796109,
            44.9502554
          ],
          [
            -0.7803887,
            44.9498567
          ],
          [
            -0.7817459,
            44.949367
          ],
          [
            -0.8150107,
            44.9388685
          ],
          [
            -0.8148712,
            44.9385837
          ],
          [
            -0.8185887,
            44.9340837
          ],
          [
            -0.8266139,
            44.9248264
          ],
          [
            -0.8323753,
            44.92506
          ],
          [
            -0.8348054,
            44.923837
          ],
          [
            -0.8351541,
            44.9227412
          ],
          [
            -0.83664,
            44.9190168
          ],
          [
            -0.8535191,
            44.9189655
          ],
          [
            -0.8555442,
            44.9152675
          ],
          [
            -0.8587253,
            44.9059064
          ],
          [
            -0.8790189,
            44.9088623
          ],
          [
            -0.8858988,
            44.9025894
          ],
          [
            -0.8958256,
            44.9047362
          ],
          [
            -0.9264243,
            44.9080682
          ],
          [
            -0.9268856,
            44.9080568
          ],
          [
            -0.9367561,
            44.9057316
          ],
          [
            -0.9935117,
            44.9007123
          ],
          [
            -0.9939918,
            44.903621
          ],
          [
            -1.0012043,
            44.9054885
          ],
          [
            -1.0023201,
            44.9059216
          ],
          [
            -1.0084355,
            44.9069057
          ],
          [
            -1.0150015,
            44.9042574
          ],
          [
            -1.0234129,
            44.9047704
          ],
          [
            -1.0255051,
            44.9044626
          ],
          [
            -1.046083,
            44.9081556
          ],
          [
            -1.065411,
            44.918314
          ],
          [
            -1.079042,
            44.9216795
          ],
          [
            -1.115799,
            44.9243611
          ],
          [
            -1.1210776,
            44.9123499
          ],
          [
            -1.1239207,
            44.9021828
          ],
          [
            -1.1266565,
            44.9032771
          ],
          [
            -1.1282337,
            44.9033455
          ],
          [
            -1.1296821,
            44.9031328
          ],
          [
            -1.1339951,
            44.9030796
          ],
          [
            -1.1454964,
            44.904493
          ],
          [
            -1.1535645,
            44.9062864
          ],
          [
            -1.1597872,
            44.906408
          ],
          [
            -1.1705161,
            44.9099337
          ],
          [
            -1.1778546,
            44.9141278
          ],
          [
            -1.1787558,
            44.9145533
          ],
          [
            -1.1827898,
            44.9147053
          ],
          [
            -1.1871672,
            44.9157082
          ],
          [
            -1.2102342,
            44.9175467
          ],
          [
            -1.2223149,
            44.9186256
          ],
          [
            -1.4199857,
            44.9317539
          ],
          [
            -1.4227322,
            44.7993799
          ],
          [
            -1.4694241,
            44.6569337
          ],
          [
            -1.4859036,
            44.5356765
          ],
          [
            -1.4859036,
            44.4239749
          ],
          [
            -1.5298489,
            44.1467416
          ],
          [
            -1.5380873,
            43.7780361
          ],
          [
            -1.5092482,
            43.7373687
          ],
          [
            -1.4247036,
            43.7243433
          ],
          [
            -1.4133096,
            43.7273206
          ],
          [
            -1.4128161,
            43.727181
          ],
          [
            -1.4119148,
            43.7268554
          ],
          [
            -1.4164853,
            43.7197841
          ],
          [
            -1.4180303,
            43.7179231
          ],
          [
            -1.4195752,
            43.7169616
          ],
          [
            -1.4208198,
            43.7161396
          ],
          [
            -1.4212918,
            43.7154572
          ],
          [
            -1.4210773,
            43.7145266
          ],
          [
            -1.4204765,
            43.7136271
          ],
          [
            -1.4190603,
            43.7122312
          ],
          [
            -1.4188457,
            43.7116573
          ],
          [
            -1.4192534,
            43.7105561
          ],
          [
            -1.4191675,
            43.7098116
          ],
          [
            -1.4186311,
            43.7091446
          ],
          [
            -1.4173866,
            43.7084777
          ],
          [
            -1.4170647,
            43.7078262
          ],
          [
            -1.4174724,
            43.7072678
          ],
          [
            -1.4196825,
            43.7048169
          ],
          [
            -1.4199615,
            43.704305
          ],
          [
            -1.4205837,
            43.6997598
          ],
          [
            -1.4209485,
            43.6992324
          ],
          [
            -1.4218497,
            43.6986429
          ],
          [
            -1.4245105,
            43.6979448
          ],
          [
            -1.4251542,
            43.6974638
          ],
          [
            -1.4254546,
            43.6968278
          ],
          [
            -1.4254409,
            43.6956952
          ],
          [
            -1.4254117,
            43.6932749
          ],
          [
            -1.4249397,
            43.6928405
          ],
          [
            -1.4254117,
            43.6922199
          ],
          [
            -1.4254546,
            43.6896133
          ],
          [
            -1.4253688,
            43.6861997
          ],
          [
            -1.425122,
            43.6856023
          ],
          [
            -1.4246285,
            43.6851446
          ],
          [
            -1.4224398,
            43.6842135
          ],
          [
            -1.4220214,
            43.6838101
          ],
          [
            -1.4188886,
            43.6799772
          ],
          [
            -1.4187062,
            43.6793797
          ],
          [
            -1.4181912,
            43.6769665
          ],
          [
            -1.412226,
            43.6761828
          ],
          [
            -1.4131165,
            43.6742661
          ],
          [
            -1.4134169,
            43.6727762
          ],
          [
            -1.4134061,
            43.6724425
          ],
          [
            -1.4118719,
            43.6734591
          ],
          [
            -1.4097476,
            43.6738937
          ],
          [
            -1.4055205,
            43.6731487
          ],
          [
            -1.4036751,
            43.671876
          ],
          [
            -1.4025164,
            43.6706965
          ],
          [
            -1.3968945,
            43.6695324
          ],
          [
            -1.395886,
            43.6686477
          ],
          [
            -1.3926351,
            43.6694393
          ],
          [
            -1.3913262,
            43.6709138
          ],
          [
            -1.3908649,
            43.6722485
          ],
          [
            -1.388526,
            43.6737074
          ],
          [
            -1.3884401,
            43.6739945
          ],
          [
            -1.3880539,
            43.6740489
          ],
          [
            -1.3835263,
            43.6778666
          ],
          [
            -1.3816166,
            43.6770441
          ],
          [
            -1.3809085,
            43.6756474
          ],
          [
            -1.3808012,
            43.6746541
          ],
          [
            -1.3788486,
            43.6738781
          ],
          [
            -1.3779044,
            43.6732263
          ],
          [
            -1.3764239,
            43.672978
          ],
          [
            -1.3736773,
            43.6717674
          ],
          [
            -1.3730979,
            43.6711
          ],
          [
            -1.3716817,
            43.669579
          ],
          [
            -1.3703728,
            43.6691909
          ],
          [
            -1.3687635,
            43.6679492
          ],
          [
            -1.366725,
            43.6673439
          ],
          [
            -1.3649011,
            43.66708
          ],
          [
            -1.3651586,
            43.6659159
          ],
          [
            -1.3635278,
            43.6655434
          ],
          [
            -1.3602448,
            43.6637738
          ],
          [
            -1.3585282,
            43.6644413
          ],
          [
            -1.3569403,
            43.6643947
          ],
          [
            -1.355331,
            43.6639911
          ],
          [
            -1.351018,
            43.6634013
          ],
          [
            -1.344924,
            43.6627493
          ],
          [
            -1.3439584,
            43.6620508
          ],
          [
            -1.34516,
            43.6612436
          ],
          [
            -1.3453317,
            43.6606071
          ],
          [
            -1.3449884,
            43.6597068
          ],
          [
            -1.3442373,
            43.6589306
          ],
          [
            -1.3443876,
            43.6581078
          ],
          [
            -1.344924,
            43.6578905
          ],
          [
            -1.3450742,
            43.6574247
          ],
          [
            -1.3448167,
            43.6561207
          ],
          [
            -1.3478208,
            43.6526276
          ],
          [
            -1.3488293,
            43.6521308
          ],
          [
            -1.3497305,
            43.6508111
          ],
          [
            -1.3495589,
            43.6502832
          ],
          [
            -1.3520909,
            43.6494914
          ],
          [
            -1.355052,
            43.6490877
          ],
          [
            -1.3582921,
            43.6492429
          ],
          [
            -1.3587213,
            43.6496621
          ],
          [
            -1.3606525,
            43.6496621
          ],
          [
            -1.3609958,
            43.6491498
          ],
          [
            -1.3636351,
            43.6488237
          ],
          [
            -1.3661885,
            43.6481406
          ],
          [
            -1.3709092,
            43.6459357
          ],
          [
            -1.3714028,
            43.6454078
          ],
          [
            -1.3738489,
            43.644088
          ],
          [
            -1.3754583,
            43.6420072
          ],
          [
            -1.3767457,
            43.6422091
          ],
          [
            -1.3790632,
            43.6411998
          ],
          [
            -1.3815952,
            43.6396469
          ],
          [
            -1.3839126,
            43.6378766
          ],
          [
            -1.3883972,
            43.6341339
          ],
          [
            -1.3898778,
            43.6327828
          ],
          [
            -1.3912297,
            43.6329381
          ],
          [
            -1.3938475,
            43.6319441
          ],
          [
            -1.3947702,
            43.631882
          ],
          [
            -1.395092,
            43.6316646
          ],
          [
            -1.3967228,
            43.6315403
          ],
          [
            -1.3970232,
            43.6316024
          ],
          [
            -1.3973665,
            43.6314627
          ],
          [
            -1.3978844,
            43.6315606
          ],
          [
            -1.4002419,
            43.6320062
          ],
          [
            -1.4023876,
            43.6317112
          ],
          [
            -1.4034605,
            43.6320373
          ],
          [
            -1.4098789,
            43.6344435
          ],
          [
            -1.4106274,
            43.6347241
          ],
          [
            -1.4162278,
            43.6361373
          ],
          [
            -1.4193177,
            43.6320218
          ],
          [
            -1.4233303,
            43.6282943
          ],
          [
            -1.4301324,
            43.6261664
          ],
          [
            -1.4328575,
            43.6249238
          ],
          [
            -1.4343167,
            43.6259645
          ],
          [
            -1.4353252,
            43.6291485
          ],
          [
            -1.4359474,
            43.6301115
          ],
          [
            -1.4386082,
            43.6298474
          ],
          [
            -1.4407754,
            43.6292106
          ],
          [
            -1.4447236,
            43.6284651
          ],
          [
            -1.4499808,
            43.6285428
          ],
          [
            -1.4500237,
            43.6295523
          ],
          [
            -1.4538217,
            43.6305929
          ],
          [
            -1.6259793,
            43.6539647
          ],
          [
            -1.7028836,
            43.6420403
          ],
          [
            -1.7962674,
            43.5704438
          ],
          [
            -1.9335965,
            43.5326224
          ]
        ]
      },
      "id": "way/1327092585"
    },
    {
      "type": "Feature",
      "properties": {
        "@id": "way/1346642321",
        "circuits": "2",
        "construction:power": "cable",
        "frequency": "0",
        "location": "underground",
        "name": "Interconnexion Electrique du Golfe de Gascogne / Interconexión Eléctrica por el Golfo de Bizkaia",
        "name:es": "Interconexión Eléctrica por el Golfo de Bizkaia",
        "name:eu": "Interconnexion Electrique du Golfe de Gascogne / Interconexión Eléctrica por el Golfo de Bizkaia",
        "name:fr": "Interconnexion Electrique du Golfe de Gascogne",
        "operator": "RTE;REE",
        "source": "https://www.nouvelle-aquitaine.developpement-durable.gouv.fr/arrete-portant-declaration-d-utilite-publique-a14663.html",
        "voltage": "400000",
        "wikidata": "Q125698358",
        "wikipedia": "fr:Interconnexion électrique France-Espagne golfe de Gascogne"
      },
      "geometry": {
        "type": "LineString",
        "coordinates": [
          [
            -1.9335965,
            43.5326224
          ],
          [
            -2.861075,
            43.4410634
          ],
          [
            -2.8686413,
            43.431242
          ],
          [
            -2.8716431,
            43.4269454
          ],
          [
            -2.8705537,
            43.4187
          ],
          [
            -2.8648365,
            43.4148644
          ],
          [
            -2.8567484,
            43.412512
          ],
          [
            -2.8523599,
            43.4067364
          ],
          [
            -2.8519997,
            43.4021755
          ],
          [
            -2.853049,
            43.4009931
          ],
          [
            -2.8574688,
            43.402077
          ],
          [
            -2.8611649,
            43.4019858
          ],
          [
            -2.8616693,
            43.4013338
          ],
          [
            -2.8608814,
            43.400132
          ],
          [
            -2.8616594,
            43.3983754
          ],
          [
            -2.8649788,
            43.3961984
          ],
          [
            -2.8657098,
            43.3943839
          ],
          [
            -2.8653827,
            43.3919556
          ],
          [
            -2.86452,
            43.3914514
          ],
          [
            -2.8636363,
            43.3891791
          ],
          [
            -2.8656829,
            43.3882949
          ],
          [
            -2.8669959,
            43.3885874
          ],
          [
            -2.8686081,
            43.3886317
          ],
          [
            -2.8697588,
            43.3848725
          ],
          [
            -2.870103,
            43.3840363
          ],
          [
            -2.8691582,
            43.3835798
          ],
          [
            -2.869366,
            43.3830845
          ],
          [
            -2.8710076,
            43.3814511
          ],
          [
            -2.8708826,
            43.3807997
          ],
          [
            -2.8712729,
            43.3799943
          ],
          [
            -2.8719531,
            43.379423
          ],
          [
            -2.8716749,
            43.3786067
          ],
          [
            -2.8714439,
            43.3770583
          ],
          [
            -2.8706595,
            43.373652
          ],
          [
            -2.8670374,
            43.3721921
          ],
          [
            -2.8682432,
            43.3704461
          ],
          [
            -2.8685728,
            43.3703681
          ],
          [
            -2.8686291,
            43.3695439
          ],
          [
            -2.8681598,
            43.3678668
          ],
          [
            -2.8691328,
            43.3660373
          ],
          [
            -2.8684754,
            43.3652804
          ],
          [
            -2.8642686,
            43.3642938
          ],
          [
            -2.862976,
            43.3637379
          ],
          [
            -2.8604716,
            43.3615304
          ],
          [
            -2.8606185,
            43.3594139
          ],
          [
            -2.8610252,
            43.3589348
          ],
          [
            -2.861954,
            43.3584768
          ],
          [
            -2.8630692,
            43.3582522
          ],
          [
            -2.86455,
            43.3583112
          ],
          [
            -2.8649012,
            43.3580922
          ],
          [
            -2.8662144,
            43.3580923
          ],
          [
            -2.8667184,
            43.3578868
          ],
          [
            -2.8676874,
            43.3579194
          ],
          [
            -2.868025,
            43.3578849
          ],
          [
            -2.8684389,
            43.3577969
          ],
          [
            -2.8687443,
            43.3576564
          ],
          [
            -2.8690752,
            43.3575611
          ],
          [
            -2.8694781,
            43.3575558
          ],
          [
            -2.869895,
            43.3574877
          ],
          [
            -2.8701959,
            43.3573512
          ],
          [
            -2.8707204,
            43.3570105
          ],
          [
            -2.8710827,
            43.3569347
          ],
          [
            -2.8714635,
            43.3567778
          ],
          [
            -2.8718507,
            43.3563974
          ],
          [
            -2.8725271,
            43.3551237
          ],
          [
            -2.8735232,
            43.3544625
          ],
          [
            -2.8739388,
            43.3534695
          ],
          [
            -2.8748306,
            43.35242
          ],
          [
            -2.8751941,
            43.352263
          ],
          [
            -2.8776194,
            43.3511337
          ]
        ]
      },
      "id": "way/1346642321"
    }
  ]
}